UNKNOWN                 
1 87730U          26061.00804452  .00000090  00000+0  78076-4 0  9993
2 87730  82.9490 175.4612 0030974 141.4802 218.8573 13.74520558596226
UNKNOWN                 
1 87737U          26061.09739174  .00000049  00000+0  95584-4 0  9994
2 87737  99.3670 296.1418 0133008 343.1811  16.4948 13.72355923614749
UNKNOWN                 
1 87764U          26061.40047333  .00010375  00000+0  16921-2 0  9997
2 87764  65.6728 302.9445 0359466  34.9962 142.3115 14.36378780630554
UNKNOWN                 
1 87771U          26061.30131287  .00000101  00000+0  35585-3 0  9990
2 87771 100.7431 264.1946 0119574 181.8872 178.1805 13.19540425545583
UNKNOWN                 
1 87782U          26061.60862246  .00003823  00000+0  12632-1 0  9991
2 87782 102.3651 308.8310 0053069  42.8179 317.7033 13.00880763578379
UNKNOWN                 
1 87843U          26061.54583040  .00002064  00000+0  46761-2 0  9991
2 87843  99.6571 173.9844 0247304 178.1918 182.0149 13.16934207574669
UNKNOWN                 
1 87845U          26061.63311767  .00003146  00000+0  58295-2 0  9995
2 87845  98.8681   8.5035 0579551  69.5731 296.6617 12.89240054575502
UNKNOWN                 
1 87878U          26060.58067421  .00003848  00000+0  11929-2 0  9991
2 87878  99.1593 190.6549 0034360  36.2979 324.0529 14.41439820622654
UNKNOWN                 
1 87884U          26059.56944444  .00000607  00000+0  35614-3 0  9991
2 87884  98.7315 165.6870 0153707 208.8803 150.3794 14.06044062629301
UNKNOWN                 
1 87991U          26058.90253881  .00004024  00000+0  77235-2 0  9996
2 87991  28.6287 295.8565 0895898 205.1452 150.2727 12.35692323532544
UNKNOWN                 
1 89005U          26061.46720052  .00005218  00000+0  11724-2 0  9995
2 89005  97.8416 249.6729 0190719 145.8859 215.4766 14.46215743545614
UNKNOWN                 
1 89029U          26035.99064593  .00008279  00000+0  75403-3 0  9996
2 89029  98.0469 301.6350 0022937 142.0484 218.2357 14.95225167659189
UNKNOWN                 
1 89101U          26061.04297521  .00000454  00000+0  14851-2 0  9997
2 89101 100.4715   0.2530 0146743 291.6131  66.9397 13.04036176565183
UNKNOWN                 
1 89132U          26057.72234989  .00004440  00000+0  56561-2 0  9993
2 89132  63.4380 322.0666 2931950 319.6085  21.9735  8.87879281331850
UNKNOWN                 
1 89146U          26060.26985510  .00003749  00000+0  68338-3 0  9991
2 89146  98.2527 354.0557 0091801 168.4842 191.8490 14.63925804640367
UNKNOWN                 
1 89161U          26061.02835255  .00375843  00000+0  31998-2 0  9991
2 89161  97.6398  86.7404 0023231 132.3369 227.9864 15.68113445560878
UNKNOWN                 
1 89172U          26060.95566635  .00006145  00000+0  96560-3 0  9990
2 89172  82.0646 147.4672 0282559  37.2688 324.7747 14.49051122613352
